[
  {
    "OBJECT_NAME": "COSMOS 2434 (721)",
    "OBJECT_ID": "2007-065A",
    "EPOCH": "2026-06-27T04:34:21.639072",
    "MEAN_MOTION": 2.1310137,
    "ECCENTRICITY": 0.00012437,
    "INCLINATION": 64.3185,
    "RA_OF_ASC_NODE": 191.5785,
    "ARG_OF_PERICENTER": 326.9302,
    "MEAN_ANOMALY": 245.4349,
    "EPHEMERIS_TYPE": 0,
    "CLASSIFICATION_TYPE": "U",
    "NORAD_CAT_ID": 32393,
    "ELEMENT_SET_NO": 999,
    "REV_AT_EPOCH": 14398,
    "BSTAR": 0,
    "MEAN_MOTION_DOT": 1.01e-06,
    "MEAN_MOTION_DDOT": 0
  },
  {
    "OBJECT_NAME": "COSMOS 2436 (723)",
    "OBJECT_ID": "2007-065C",
    "EPOCH": "2026-06-26T12:10:30.511776",
    "MEAN_MOTION": 2.13100188,
    "ECCENTRICITY": 0.0017278,
    "INCLINATION": 64.3272,
    "RA_OF_ASC_NODE": 191.6738,
    "ARG_OF_PERICENTER": 353.6044,
    "MEAN_ANOMALY": 186.8858,
    "EPHEMERIS_TYPE": 0,
    "CLASSIFICATION_TYPE": "U",
    "NORAD_CAT_ID": 32395,
    "ELEMENT_SET_NO": 999,
    "REV_AT_EPOCH": 14392,
    "BSTAR": 0,
    "MEAN_MOTION_DOT": 1.05e-06,
    "MEAN_MOTION_DDOT": 0
  },
  {
    "OBJECT_NAME": "COSMOS 2456 (730)",
    "OBJECT_ID": "2009-070A",
    "EPOCH": "2026-06-25T18:48:35.935200",
    "MEAN_MOTION": 2.13103651,
    "ECCENTRICITY": 0.00042491,
    "INCLINATION": 65.0164,
    "RA_OF_ASC_NODE": 70.6784,
    "ARG_OF_PERICENTER": 334.9853,
    "MEAN_ANOMALY": 36.339,
    "EPHEMERIS_TYPE": 0,
    "CLASSIFICATION_TYPE": "U",
    "NORAD_CAT_ID": 36111,
    "ELEMENT_SET_NO": 999,
    "REV_AT_EPOCH": 12861,
    "BSTAR": 0,
    "MEAN_MOTION_DOT": -6.5e-07,
    "MEAN_MOTION_DDOT": 0
  },
  {
    "OBJECT_NAME": "COSMOS 2460 (732)",
    "OBJECT_ID": "2010-007C",
    "EPOCH": "2026-06-27T05:30:11.897568",
    "MEAN_MOTION": 2.1310174,
    "ECCENTRICITY": 0.00020317,
    "INCLINATION": 65.4142,
    "RA_OF_ASC_NODE": 314.1261,
    "ARG_OF_PERICENTER": 121.7117,
    "MEAN_ANOMALY": 47.8769,
    "EPHEMERIS_TYPE": 0,
    "CLASSIFICATION_TYPE": "U",
    "NORAD_CAT_ID": 36402,
    "ELEMENT_SET_NO": 999,
    "REV_AT_EPOCH": 12694,
    "BSTAR": 0,
    "MEAN_MOTION_DOT": -8.2e-07,
    "MEAN_MOTION_DDOT": 0
  },
  {
    "OBJECT_NAME": "COSMOS 2475 (743)",
    "OBJECT_ID": "2011-064C",
    "EPOCH": "2026-06-27T08:20:30.126624",
    "MEAN_MOTION": 2.13101874,
    "ECCENTRICITY": 0.0025236,
    "INCLINATION": 65.289,
    "RA_OF_ASC_NODE": 72.6291,
    "ARG_OF_PERICENTER": 252.4316,
    "MEAN_ANOMALY": 282.3268,
    "EPHEMERIS_TYPE": 0,
    "CLASSIFICATION_TYPE": "U",
    "NORAD_CAT_ID": 37869,
    "ELEMENT_SET_NO": 999,
    "REV_AT_EPOCH": 11398,
    "BSTAR": 0,
    "MEAN_MOTION_DOT": -5.1e-07,
    "MEAN_MOTION_DDOT": 0
  },
  {
    "OBJECT_NAME": "COSMOS 2476 (744)",
    "OBJECT_ID": "2011-064A",
    "EPOCH": "2026-06-22T08:48:28.058688",
    "MEAN_MOTION": 2.13103651,
    "ECCENTRICITY": 0.00226061,
    "INCLINATION": 65.2731,
    "RA_OF_ASC_NODE": 72.6963,
    "ARG_OF_PERICENTER": 238.5611,
    "MEAN_ANOMALY": 299.8582,
    "EPHEMERIS_TYPE": 0,
    "CLASSIFICATION_TYPE": "U",
    "NORAD_CAT_ID": 37867,
    "ELEMENT_SET_NO": 999,
    "REV_AT_EPOCH": 11387,
    "BSTAR": 0,
    "MEAN_MOTION_DOT": -6.1e-07,
    "MEAN_MOTION_DDOT": 0
  },
  {
    "OBJECT_NAME": "COSMOS 2477 (745)",
    "OBJECT_ID": "2011-064B",
    "EPOCH": "2026-06-27T07:01:57.780768",
    "MEAN_MOTION": 2.13102995,
    "ECCENTRICITY": 0.00194,
    "INCLINATION": 65.2822,
    "RA_OF_ASC_NODE": 72.6094,
    "ARG_OF_PERICENTER": 238.8969,
    "MEAN_ANOMALY": 298.9395,
    "EPHEMERIS_TYPE": 0,
    "CLASSIFICATION_TYPE": "U",
    "NORAD_CAT_ID": 37868,
    "ELEMENT_SET_NO": 999,
    "REV_AT_EPOCH": 11397,
    "BSTAR": 0,
    "MEAN_MOTION_DOT": -5.1e-07,
    "MEAN_MOTION_DDOT": 0
  },
  {
    "OBJECT_NAME": "COSMOS 2485 (747)",
    "OBJECT_ID": "2013-019A",
    "EPOCH": "2026-06-27T05:36:33.082272",
    "MEAN_MOTION": 2.13103295,
    "ECCENTRICITY": 0.002291,
    "INCLINATION": 65.4252,
    "RA_OF_ASC_NODE": 73.2671,
    "ARG_OF_PERICENTER": 232.8969,
    "MEAN_ANOMALY": 126.9354,
    "EPHEMERIS_TYPE": 0,
    "CLASSIFICATION_TYPE": "U",
    "NORAD_CAT_ID": 39155,
    "ELEMENT_SET_NO": 999,
    "REV_AT_EPOCH": 10249,
    "BSTAR": 0,
    "MEAN_MOTION_DOT": -5.2e-07,
    "MEAN_MOTION_DDOT": 0
  },
  {
    "OBJECT_NAME": "COSMOS 2514 (751)",
    "OBJECT_ID": "2016-008A",
    "EPOCH": "2026-06-26T16:05:19.123872",
    "MEAN_MOTION": 2.13102793,
    "ECCENTRICITY": 0.00116423,
    "INCLINATION": 65.0155,
    "RA_OF_ASC_NODE": 312.6811,
    "ARG_OF_PERICENTER": 199.0103,
    "MEAN_ANOMALY": 160.9356,
    "EPHEMERIS_TYPE": 0,
    "CLASSIFICATION_TYPE": "U",
    "NORAD_CAT_ID": 41330,
    "ELEMENT_SET_NO": 999,
    "REV_AT_EPOCH": 8082,
    "BSTAR": 0,
    "MEAN_MOTION_DOT": -8.4e-07,
    "MEAN_MOTION_DDOT": 0
  },
  {
    "OBJECT_NAME": "COSMOS 2522 (752)",
    "OBJECT_ID": "2017-055A",
    "EPOCH": "2026-06-24T03:53:00.968064",
    "MEAN_MOTION": 2.13101107,
    "ECCENTRICITY": 0.00084097,
    "INCLINATION": 64.0776,
    "RA_OF_ASC_NODE": 191.6387,
    "ARG_OF_PERICENTER": 235.5259,
    "MEAN_ANOMALY": 124.4452,
    "EPHEMERIS_TYPE": 0,
    "CLASSIFICATION_TYPE": "U",
    "NORAD_CAT_ID": 42939,
    "ELEMENT_SET_NO": 999,
    "REV_AT_EPOCH": 6812,
    "BSTAR": 0,
    "MEAN_MOTION_DOT": 1.04e-06,
    "MEAN_MOTION_DDOT": 0
  },
  {
    "OBJECT_NAME": "COSMOS 2492 (754)",
    "OBJECT_ID": "2014-012A",
    "EPOCH": "2026-06-23T21:47:10.853664",
    "MEAN_MOTION": 2.13103141,
    "ECCENTRICITY": 0.00102141,
    "INCLINATION": 65.2933,
    "RA_OF_ASC_NODE": 313.7069,
    "ARG_OF_PERICENTER": 323.0851,
    "MEAN_ANOMALY": 36.8355,
    "EPHEMERIS_TYPE": 0,
    "CLASSIFICATION_TYPE": "U",
    "NORAD_CAT_ID": 39620,
    "ELEMENT_SET_NO": 999,
    "REV_AT_EPOCH": 9538,
    "BSTAR": 0,
    "MEAN_MOTION_DOT": -8.2e-07,
    "MEAN_MOTION_DDOT": 0
  },
  {
    "OBJECT_NAME": "COSMOS 2500 (755)",
    "OBJECT_ID": "2014-032A",
    "EPOCH": "2026-06-26T21:25:50.568096",
    "MEAN_MOTION": 2.13105995,
    "ECCENTRICITY": 0.0007742,
    "INCLINATION": 65.2261,
    "RA_OF_ASC_NODE": 313.3519,
    "ARG_OF_PERICENTER": 186.1221,
    "MEAN_ANOMALY": 173.8575,
    "EPHEMERIS_TYPE": 0,
    "CLASSIFICATION_TYPE": "U",
    "NORAD_CAT_ID": 40001,
    "ELEMENT_SET_NO": 999,
    "REV_AT_EPOCH": 9366,
    "BSTAR": 0,
    "MEAN_MOTION_DOT": -8.3e-07,
    "MEAN_MOTION_DDOT": 0
  },
  {
    "OBJECT_NAME": "COSMOS 2527 (756)",
    "OBJECT_ID": "2018-053A",
    "EPOCH": "2026-06-26T00:00:57.081024",
    "MEAN_MOTION": 2.13102108,
    "ECCENTRICITY": 0.00068737,
    "INCLINATION": 65.5828,
    "RA_OF_ASC_NODE": 73.6132,
    "ARG_OF_PERICENTER": 236.8993,
    "MEAN_ANOMALY": 123.0709,
    "EPHEMERIS_TYPE": 0,
    "CLASSIFICATION_TYPE": "U",
    "NORAD_CAT_ID": 43508,
    "ELEMENT_SET_NO": 999,
    "REV_AT_EPOCH": 6246,
    "BSTAR": 0,
    "MEAN_MOTION_DOT": -6.2e-07,
    "MEAN_MOTION_DDOT": 0
  },
  {
    "OBJECT_NAME": "COSMOS 2529 (757)",
    "OBJECT_ID": "2018-086A",
    "EPOCH": "2026-06-26T02:19:47.979840",
    "MEAN_MOTION": 2.13102017,
    "ECCENTRICITY": 0.0012114,
    "INCLINATION": 64.2953,
    "RA_OF_ASC_NODE": 192.2935,
    "ARG_OF_PERICENTER": 256.4695,
    "MEAN_ANOMALY": 103.4491,
    "EPHEMERIS_TYPE": 0,
    "CLASSIFICATION_TYPE": "U",
    "NORAD_CAT_ID": 43687,
    "ELEMENT_SET_NO": 999,
    "REV_AT_EPOCH": 5947,
    "BSTAR": 0,
    "MEAN_MOTION_DOT": 1.06e-06,
    "MEAN_MOTION_DDOT": 0
  }
]
